JCSAT-13                
1 38331U 12023A   19115.85528090 -.00000370  00000-0  00000-0 0  9991
2 38331   0.0133 251.6607 0002415 174.0151 219.7914  1.00273754 25363
VINASAT-2               
1 38332U 12023B   19116.50288639 -.00000341  00000-0  00000+0 0  9994
2 38332   0.0023 302.1841 0002803 116.3736 108.5271  1.00273540 25457
NIMIQ 6                 
1 38342U 12026A   19116.15118841 -.00000187  00000-0  00000+0 0  9994
2 38342   0.0043 194.2730 0003002 203.0330 139.8856  1.00271880 25432
CHINASAT 2A (ZX 2A)     
1 38352U 12028A   19116.06548565 -.00000306  00000-0  00000+0 0  9990
2 38352   0.0378  45.6828 0003989   5.6745 284.2437  1.00274155 25473
INTELSAT 19 (IS-19)     
1 38356U 12030A   19115.86365556 -.00000070  00000-0  00000-0 0  9990
2 38356   0.0152 275.7874 0003284 126.8135 287.8889  1.00272386 24294
ECHOSTAR 17             
1 38551U 12035A   19116.45525559 -.00000088  00000-0  00000+0 0  9997
2 38551   0.0155 234.6155 0001912 155.6781 240.6518  1.00271993 24966
METEOSAT-10 (MSG-3)     
1 38552U 12035B   19116.69384580  .00000048  00000-0  00000+0 0  9996
2 38552   1.0055  17.3184 0000639  67.6009  28.4475  1.00270403 25066
SES-5                   
1 38652U 12036A   19116.38730007  .00000021  00000-0  00000+0 0  9994
2 38652   0.0443  97.8005 0002388 307.0113 313.6756  1.00274172 24913
TIANLIAN 1-03           
1 38730U 12040A   19116.12105490  .00000095  00000-0  00000+0 0  9991
2 38730   0.0329 225.2894 0006135 210.8855 197.9931  1.00273122 24826
INTELSAT 20 (IS-20)     
1 38740U 12043A   19116.50743625 -.00000037  00000-0  00000+0 0  9992
2 38740   0.0206 153.4941 0001666  40.6876 271.2084  1.00270220 24676
HYLAS 2                 
1 38741U 12043B   19116.12384646  .00000141  00000-0  00000+0 0  9990
2 38741   0.0372  75.8922 0001906 330.9033 242.6613  1.00269731 24680
INTELSAT 21 (IS-21)     
1 38749U 12045A   19115.89078590 -.00000298  00000-0  00000-0 0  9996
2 38749   0.0135 220.5221 0002247 178.7832  76.9810  1.00273621 24387
ASTRA 2F                
1 38778U 12051A   19116.48221149  .00000138  00000-0  00000+0 0  9992
2 38778   0.0610 232.6582 0000587 339.0963 204.2521  1.00275732 24136
GSAT-10                 
1 38779U 12051B   19116.49320322 -.00000178  00000-0  00000+0 0  9992
2 38779   0.1030  94.9807 0003128 334.5606  45.2216  1.00272358 24136
INTELSAT 23 (IS-23)     
1 38867U 12057A   19116.46607285 -.00000297  00000-0  00000+0 0  9991
2 38867   0.0403  81.4264 0001867 324.0654 283.4702  1.00270885 23947
BEIDOU 16               
1 38953U 12059A   19115.77546006 -.00000189  00000-0  00000-0 0  9996
2 38953   1.7608  83.1890 0004761 235.2290 258.2226  1.00274757 23883
LUCH 5B                 
1 38977U 12061A   19115.75548304 -.00000143  00000-0  00000+0 0  9995
2 38977   4.8991  70.2136 0006932 312.4855  86.4613  1.00270641 24010
YAMAL 300K              
1 38978U 12061B   19116.15420453  .00000058  00000-0  00000+0 0  9999
2 38978   0.0156 279.6288 0000672 134.7068  37.9955  1.00271810 23716
STAR ONE C3             
1 38991U 12062A   19115.88738370 -.00000262  00000-0  00000-0 0  9993
2 38991   0.0380  79.9441 0003236 338.4756  39.6430  1.00272125 23614
EUTELSAT 21B            
1 38992U 12062B   19115.90666282  .00000116  00000-0  00000-0 0  9996
2 38992   0.0707   3.7097 0002289  31.1947 166.7240  1.00269145 23682
ECHOSTAR 16             
1 39008U 12065A   19115.97078580 -.00000295  00000-0  00000-0 0  9992
2 39008   0.0170 219.8769 0001868 178.1012 103.6783  1.00271973 23479
CHINASAT 12 (ZX 12)     
1 39017U 12067A   19116.13509987 -.00000219  00000-0  00000+0 0  9998
2 39017   0.0213 141.6598 0003060 258.3927 309.9158  1.00270484 23542
EUTELSAT 70B            
1 39020U 12069A   19116.13178491 -.00000056  00000-0  00000+0 0  9995
2 39020   0.0680 353.9721 0001836  70.1441 267.6728  1.00270800 23444
YAMAL 402               
1 39022U 12070A   19116.41582497  .00000073  00000-0  00000+0 0  9993
2 39022   0.0150  61.0260 0003394 351.9929   5.6948  1.00272186 23448
SKYNET 5D               
1 39034U 12075A   19116.48718394  .00000086  00000-0  00000+0 0  9999
2 39034   0.0780 353.1777 0003361  45.5259  43.6596  1.00275105 23360
MEXSAT 3                
1 39035U 12075B   19116.55996535 -.00000038  00000-0  00000+0 0  9991
2 39035   0.0127 244.4609 0002483 165.3547 251.2205  1.00270888 23319
TDRS 11                 
1 39070U 13004A   19115.31691434  .00000061  00000-0  00000-0 0  9992
2 39070   4.4489 329.4978 0004441  33.1571 150.0957  1.00267924 22816
AMAZONAS 3              
1 39078U 13006A   19116.44141068 -.00000295  00000-0  00000+0 0  9999
2 39078   0.0228 204.2162 0001359 186.7397 281.0580  1.00276166 22802
AZERSPACE 1             
1 39079U 13006B   19116.48578816  .00000121  00000-0  00000+0 0  9996
2 39079   0.0281  76.6054 0002615   2.0041 356.4690  1.00270080 22779
SBIRS GEO-2 (USA 241)   
1 39120U 13011A   19115.90613941  .00000106  00000-0  00000-0 0  9998
2 39120   2.6554 330.9678 0002019  65.8706 163.5934  1.00272892 22397
EUTELSAT 117 WEST A     
1 39122U 13012A   19116.16615583 -.00000026  00000-0  00000+0 0  9995
2 39122   0.0332  38.8184 0003004 348.5605 129.4946  1.00271810 22309
ANIK G1                 
1 39127U 13014A   19116.56568325 -.00000087  00000-0  00000+0 0  9994
2 39127   0.0128 262.9334 0001701 106.1534 301.5270  1.00272231 22092
CHINASAT 11 (ZX 11)     
1 39157U 13020A   19115.78448942 -.00000305  00000-0  00000+0 0  9992
2 39157   0.0181 177.4782 0003046 142.5448 273.9219  1.00271940 21981
EUTELSAT 7B             
1 39163U 13022A   19115.90369681  .00000034  00000-0  00000-0 0  9996
2 39163   0.0766  63.8944 0005434 318.0534 163.9890  1.00271160 21824
WGS F5 (USA 243)        
1 39168U 13024A   19116.46616008 -.00000297  00000-0  00000+0 0  9994
2 39168   0.0169 224.1421 0000879 235.1290 230.2156  1.00273813 21666
SES-6                   
1 39172U 13026A   19116.46851545 -.00000274  00000-0  00000+0 0  9993
2 39172   0.0354 303.5560 0002074 104.7361 294.0436  1.00272685 21566
IRNSS-1A                
1 39199U 13034A   19116.05676206  .00000106  00000-0  00000+0 0  9998
2 39199  30.0274 103.5642 0018988 188.7489 356.8920  1.00276816 21488
MUOS-2                  
1 39206U 13036A   19115.88249851 -.00000142  00000-0  00000+0 0  9992
2 39206   2.9330 345.2535 0056663   3.4907  82.5435  1.00270854 21147
ALPHASAT                
1 39215U 13038A   19116.38174556  .00000125  00000-0  00000+0 0  9999
2 39215   2.1923  23.5079 0002111  29.8321 323.0361  1.00273903 21102
INSAT-3D                
1 39216U 13038B   19115.91870139 -.00000169  00000-0  00000-0 0  9998
2 39216   0.0641 105.3377 0001778 316.0858 205.0114  1.00271334 20943
WGS F6 (USA 244)        
1 39222U 13041A   19116.16249193  .00000076  00000-0  00000+0 0  9992
2 39222   0.0160 230.8485 0000476 222.9801  43.3412  1.00272100 20909
EUTELSAT 25B            
1 39233U 13044A   19116.12279961  .00000130  00000-0  00000+0 0  9990
2 39233   0.0558  34.6869 0001890  13.8761 234.9480  1.00274033 20732
GSAT-7                  
1 39234U 13044B   19116.13248281 -.00000090  00000-0  00000+0 0  9999
2 39234   0.0928  97.4525 0006089 198.4829  39.6007  1.00272704 20738
AMOS-4                  
1 39237U 13045A   19116.50743625 -.00000005  00000-0  00000+0 0  9992
2 39237   0.0628  96.3633 0002277 321.2376  44.2914  1.00272543 20734
AEHF-3 (USA 246)        
1 39256U 13050A   19115.86086400 -.00000198  00000-0  00000-0 0  9992
2 39256   1.2462 312.4324 0006718  62.6773 300.4953  1.00275295 19515
ASTRA 2E                
1 39285U 13056A   19115.76446833  .00000137  00000-0  00000+0 0  9990
2 39285   0.0834  56.1765 0002585 327.6454 133.3432  1.00271742 20426
SIRIUS FM-6             
1 39360U 13058A   19116.53315160 -.00000030  00000-0  00000+0 0  9993
2 39360   0.0100 271.8370 0000633 311.8881  66.3066  1.00272086 20188
RADUGA-1M 3             
1 39375U 13062A   19116.50743624 -.00000052  00000-0  00000+0 0  9995
2 39375   0.0117 211.2455 0003411 216.2402  39.4510  1.00272832 19977
SES-8                   
1 39460U 13071A   19115.95121358 -.00000283  00000-0  00000-0 0  9999
2 39460   0.0087 230.6517 0002867 190.5360 229.9122  1.00273383 18340
INMARSAT 5-F1           
1 39476U 13073A   19116.41730797  .00000015  00000-0  00000+0 0  9994
2 39476   0.0114 231.1917 0000243 311.8695 243.8929  1.00270742 19777
TKSAT-1 (TUPAC KATARI)  
1 39481U 13075A   19115.88494110 -.00000208  00000-0  00000-0 0  9994
2 39481   0.0138 266.4383 0003422 129.7542  48.7854  1.00272444 19428
EXPRESS-AM5             
1 39487U 13077A   19115.55118815 -.00000294  00000-0  00000-0 0  9996
2 39487   0.0084 317.4736 0000877  96.4341 137.8309  1.00271282 20203
GSAT-14                 
1 39498U 14001A   19116.13248281 -.00000090  00000-0  00000+0 0  9995
2 39498   0.0647 100.8452 0002721 228.7209   5.9448  1.00272310 19415
THAICOM 6               
1 39500U 14002A   19116.50188192 -.00000134  00000-0  00000+0 0  9994
2 39500   0.0712 114.1856 0003543 332.8986  26.3228  1.00274000 19365
TDRS 12                 
1 39504U 14004A   19116.46842823 -.00000286  00000-0  00000+0 0  9991
2 39504   5.1809 336.4936 0000454 349.3751  15.9420  1.00277602 19292
ABS-2                   
1 39508U 14006A   19115.91721837 -.00000100  00000-0  00000-0 0  9993
2 39508   0.0234 298.8821 0003876 109.8812 209.9886  1.00272209 19136
ATHENA-FIDUS            
1 39509U 14006B   19116.37063395  .00000141  00000-0  00000+0 0  9996
2 39509   0.0116 276.9589 0001690 144.1532 324.2017  1.00274967 19340
TURKSAT 4A              
1 39522U 14007A   19115.87618928  .00000133  00000-0  00000-0 0  9996
2 39522   0.0272 267.3665 0002297  74.7144 228.9130  1.00272788 18825
EXPRESS-AT1             
1 39612U 14010A   19115.62637392  .00000065  00000-0  00000-0 0  9993
2 39612   0.0152 333.3962 0000062 161.4354 359.9983  1.00271637 18880
